UNKNOWN                 
1 81052U          25294.05980569  .00007959  00000+0  21562-2 0  9997
2 81052  65.7707 162.3734 0564472 333.1851  24.1021 13.82049986593038
UNKNOWN                 
1 81069U          25301.45802364  .00004159  00000+0  55642-2 0  9999
2 81069 100.3797 199.8516 0060802 155.5692 204.8348 13.60064135509777
UNKNOWN                 
1 81078U          25298.54695509 -.00000206  00000+0 -49508-2 0  9990
2 81078  65.1146 335.4290 0172020  12.8631 141.3726 11.22440022489214
UNKNOWN                 
1 81134U          25301.43908781  .00000024  00000+0  61885-4 0  9995
2 81134  90.2527   3.0055 0027736 145.9582 214.3322 12.92956365456758
UNKNOWN                 
1 81161U          25299.99446030  .00001758  00000+0  18543-2 0  9992
2 81161 100.4207 137.7304 0064089  40.0366 320.5479 13.75422410549708
UNKNOWN                 
1 81228U          25298.96602560  .00006324  00000+0  19748-2 0  9996
2 81228  70.5243  23.8548 0061143  73.4230 287.3606 14.40072507619219
UNKNOWN                 
1 81254U          25300.61878692  .00003653  00000+0  24127-2 0  9991
2 81254 100.3901 356.4085 0075008 192.5825 167.3464 14.01057686606437
UNKNOWN                 
1 81279U          25300.61817081  .00002072  00000+0  80194-3 0  9994
2 81279  98.1348   3.7424 0208631 159.9815 200.9702 14.19769486456055
UNKNOWN                 
1 81301U          25301.03511373  .00000432  00000+0  49797-3 0  9994
2 81301  66.7603  45.0314 0096013 261.0942 278.9576 13.76665952600069
